BELINTERSAT-1           
1 41238U 16001A   26170.54668215  .00000101  00000+0  00000+0 0  9999
2 41238   0.0275 255.1168 0002297 151.5489 109.3847  1.00273704 38260
IRNSS-1E                
1 41241U 16003A   26169.73041566 -.00000318  00000+0  00000+0 0  9999
2 41241  33.2372  59.7280 0018940 178.9729  42.9724  1.00277463 38098
EUTELSAT 9B             
1 41310U 16005A   26170.53818878  .00000056  00000+0  00000+0 0  9994
2 41310   0.0869  76.4724 0001681 333.7915  60.2162  1.00272437 38140
SES-9                   
1 41380U 16013A   26169.91631882 -.00000351  00000+0  00000+0 0  9997
2 41380   0.0107 340.0830 0002105 104.5244 260.7094  1.00270880 37455
EUTELSAT 65 WEST A      
1 41382U 16014A   26170.52362872 -.00000282  00000+0  00000+0 0  9992
2 41382   0.0510 336.5615 0002398 107.8294 306.6437  1.00273610 37546
IRNSS-1F                
1 41384U 16015A   26169.97262795  .00000150  00000+0  00000+0 0  9998
2 41384   5.3534  96.7408 0017431 185.0400   8.0115  1.00268295 37682
BEIDOU-2 IGSO-6         
1 41434U 16021A   26167.12386227 -.00000150  00000+0  00000+0 0  9994
2 41434  60.2243  38.0497 0057184 231.4868 132.3999  1.00259474 37472
IRNSS-1G                
1 41469U 16027A   26169.68898810 -.00000343  00000+0  00000+0 0  9991
2 41469   5.2016  97.4387 0007548 355.5290 191.4476  1.00265368 37194
JCSAT-2B                
1 41471U 16028A   26169.85408948 -.00000172  00000+0  00000+0 0  9993
2 41471   0.0179   6.2866 0000841  78.1201 284.1466  1.00270118 37142
THAICOM 8               
1 41552U 16031A   26170.55205551 -.00000127  00000+0  00000+0 0  9991
2 41552   0.0588  36.3330 0003679  22.5856 126.0736  1.00271787 36749
INTELSAT 31 (IS-31)     
1 41581U 16035A   26170.08993880 -.00000156  00000+0  00000+0 0  9996
2 41581   0.0171 269.3791 0001127 318.6423 336.6183  1.00264216 36703
BEIDOU-2 G7             
1 41586U 16037A   26170.64607029 -.00000360  00000+0  00000+0 0  9999
2 41586   1.7270  69.3491 0006447 357.9358 183.6597  1.00275243  6915
ABS-2A (MONGOLSAT-1)    
1 41588U 16038A   26170.55127551 -.00000090  00000+0  00000+0 0  9999
2 41588   0.0156  22.5309 0001377   5.5147 152.9234  1.00269034 36731
EUTELSAT 117 WEST B     
1 41589U 16038B   26169.94300566 -.00000018  00000+0  00000+0 0  9990
2 41589   0.0100 153.3935 0000602 317.0300  19.2461  1.00271826 36684
BRISAT                  
1 41591U 16039A   26169.62753025  .00000000  00000+0  00000+0 0  9991
2 41591   0.0220 335.4597 0001933 106.9867 200.8217  1.00269327 36622
ECHOSTAR 18             
1 41592U 16039B   26170.24338667 -.00000288  00000+0  00000+0 0  9992
2 41592   0.0180  14.3667 0001380  83.6095 195.7274  1.00268946 36642
MUOS-5                  
1 41622U 16041A   26170.51591535 -.00000149  00000+0  00000+0 0  9990
2 41622   2.1977 301.7269 0197564 260.7703 145.7556  1.00272966 37116
TIANTONG-1 1            
1 41725U 16048A   26170.62782089 -.00000325  00000+0  00000+0 0  9995
2 41725   3.8548  43.4472 0005576  44.2520 147.5746  1.00273687 36291
JCSAT-16                
1 41729U 16050A   26169.92342551 -.00000258  00000+0  00000+0 0  9994
2 41729   0.0183   7.0083 0000905  88.9211 287.6003  1.00270739 36080
USA 270                 
1 41744U 16052A   26167.59331618 -.00000127  00000+0  00000+0 0  9991
2 41744   4.1965  77.2060 0000730 182.0156  35.6177  0.99499640 28124
USA 271                 
1 41745U 16052B   26167.77926130 -.00000332  00000+0  00000+0 0  9999
2 41745   4.1686  77.2569 0002276 292.3319 292.8146  0.99837813 27919
INTELSAT 36 (IS-36)     
1 41747U 16053A   26169.99747454 -.00000031  00000+0  00000+0 0  9994
2 41747   0.0124  11.1204 0002121 322.4188   1.2761  1.00271257 35971
INSAT-3DR               
1 41752U 16054A   26170.55110218 -.00000082  00000+0  00000+0 0  9993
2 41752   0.1127  86.2202 0010479 187.5702 266.3458  1.00271188 35845
GSAT-18                 
1 41793U 16060A   26170.55118884 -.00000083  00000+0  00000+0 0  9993
2 41793   0.0655  95.7441 0005550 338.3003 106.1296  1.00271239 35555
SKY MUSTER 2 (NBN1B)    
1 41794U 16060B   26169.78098388 -.00000251  00000+0  00000+0 0  9990
2 41794   0.0020  21.1968 0001472  66.7815 244.9836  1.00269897 35537
HIMAWARI-9              
1 41836U 16064A   26170.27920780 -.00000281  00000+0  00000+0 0  9990
2 41836   0.0172 307.7649 0001007 181.4804  19.5297  1.00270188 35237
SHIJIAN-17 (SJ-17)      
1 41838U 16065A   26169.40634513  .00000073  00000+0  00000+0 0  9990
2 41838   5.7567  72.5909 0001842  27.8755 186.4195  0.99854984 35218
GOES 16                 
1 41866U 16071A   26170.51574201 -.00000097  00000+0  00000+0 0  9996
2 41866   0.3483  85.5118 0000273 335.3990 287.7989  1.00271294 35124
TIANLIAN 1-04           
1 41869U 16072A   26170.57161848  .00000024  00000+0  00000+0 0  9994
2 41869   0.8739  82.9022 0042499  90.0717 117.3725  1.00271729 35320
WGS F8 (USA 272)        
1 41879U 16075A   26169.62753025  .00000000  00000+0  00000+0 0  9990
2 41879   0.0418  50.4560 0000155 340.9011 251.2399  1.00268202 34833
FENGYUN 4A              
1 41882U 16077A   26170.34713694 -.00000364  00000+0  00000+0 0  9999
2 41882   2.3289  80.2523 0008694 153.5825 282.4367  1.00267406 34954
ECHOSTAR 19             
1 41893U 16079A   26169.87566957 -.00000145  00000+0  00000+0 0  9994
2 41893   0.0171  21.7381 0001221  67.5581  35.9508  1.00270951 34727
JCSAT-110A (JCSAT-15)   
1 41903U 16082A   26170.59392610 -.00000357  00000+0  00000+0 0  9999
2 41903   0.0197   9.8737 0000506  87.0838 134.7278  1.00269901 34787
STAR ONE D1             
1 41904U 16082B   26170.51990204 -.00000217  00000+0  00000+0 0  9990
2 41904   0.0159  16.8181 0002229  91.3553 262.7280  1.00270128 34792
TJS-2                   
1 41911U 17001A   26170.54971550 -.00000012  00000+0  00000+0 0  9999
2 41911   0.8404  85.2934 0000381  56.9091  30.0126  1.00270237 34749
SBIRS GEO-4 (USA 273)   
1 41937U 17004A   26170.32675495  .00000116  00000+0  00000+0 0  9999
2 41937   2.2481  43.3558 0002033  36.0411 326.6811  1.00271750 34629
HISPASAT 36W-1          
1 41942U 17006A   26170.17289509 -.00000250  00000+0  00000+0 0  9997
2 41942   0.0158 176.4567 0001517 251.7801 225.4062  1.00280304 34264
TELKOM 3S               
1 41944U 17007A   26170.18933795  .00000000  00000+0  00000+0 0  9996
2 41944   0.0158 355.6089 0002259  90.4220   7.5579  1.00267211 34166
INTELSAT 32E (IS-32E)   
1 41945U 17007B   26170.17150841 -.00000275  00000+0  00000+0 0  9994
2 41945   0.0180  10.1464 0000655 310.2644 325.5432  1.00270576 34241
ECHOSTAR 23             
1 42070U 17014A   26170.47683574 -.00000063  00000+0  00000+0 0  9994
2 42070   0.0183   4.7512 0002281  82.8443 241.8667  1.00272767 33943
WGS F9 (USA 275)        
1 42075U 17016A   26170.17766178  .00000000  00000+0  00000+0 0  9990
2 42075   0.0198 352.6556 0000301 312.3369  14.3675  1.00269311 33916
SES-10                  
1 42432U 17017A   26170.23221522 -.00000279  00000+0  00000+0 0  9993
2 42432   0.0225  41.2107 0002656  55.0874 187.8610  1.00271650 33772
CHINASAT 16 (SJ-13)     
1 42662U 17018A   26170.05937997 -.00000358  00000+0  00000+0 0  9997
2 42662   0.1014  90.1338 0004137 141.2871 167.7292  1.00265993 33769
KOREASAT 7              
1 42691U 17023A   26170.59587725 -.00000368  00000+0  00000+0 0  9995
2 42691   0.0213 341.0129 0000763  67.5868 189.6260  1.00274032 33395
SGDC                    
1 42692U 17023B   26170.46442845 -.00000255  00000+0  00000+0 0  9990
2 42692   0.0152 356.9206 0002639  98.4468 264.6503  1.00269796 33421
GSAT-9                  
1 42695U 17024A   26170.34193693 -.00000292  00000+0  00000+0 0  9996
2 42695   0.0119  57.3184 0002535  26.9744  43.6855  1.00268369 33321
INMARSAT 5-F4           
1 42698U 17025A   26169.47829941  .00000069  00000+0  00000+0 0  9995
2 42698   0.0173  18.0434 0000618 337.7045 139.6424  1.00273392 33299
SES-15                  
1 42709U 17026A   26170.01193634  .00000054  00000+0  00000+0 0  9998
2 42709   0.0188 342.0645 0000417  67.4036  92.8830  1.00268635  7450
QZS-2 (MICHIBIKI-2)     
1 42738U 17028A   26170.47837747 -.00000184  00000+0  00000+0 0  9997
2 42738  39.4240 243.1214 0758837 269.2922  69.3071  1.00283355  7645
VIASAT-2                
1 42740U 17029A   26170.52267538 -.00000271  00000+0  00000+0 0  9999
2 42740   0.0161 300.4827 0000289  86.1051 359.4289  1.00272675 33221
EUTELSAT 172B           
1 42741U 17029B   26170.52614292 -.00000012  00000+0  00000+0 0  9996
2 42741   0.0330 138.6917 0000043  82.7256  47.7589  1.00270640 33767
GSAT-19                 
1 42747U 17031A   26170.11821190  .00000119  00000+0  00000+0 0  9994
2 42747   0.0336 264.9192 0007074 165.3482 287.5183  1.00271798 33160
ECHOSTAR 21             
1 42749U 17032A   26170.53853545  .00000059  00000+0  00000+0 0  9995
2 42749   1.7706 355.8976 0002168  94.0274  21.9688  1.00270934 33124
BULGARIASAT-1           
1 42801U 17038A   26170.53680212  .00000005  00000+0  00000+0 0  9990
2 42801   0.0105  51.9521 0003144  47.5279   3.4199  1.00272553 32873
HELLAS-SAT 3            
1 42814U 17040A   26170.54425547  .00000146  00000+0  00000+0 0  9992
2 42814   0.0539  50.5978 0004742   4.4877  87.5948  1.00272658 32837
GSAT-17                 
1 42815U 17040B   26170.34115693 -.00000263  00000+0  00000+0 0  9990
2 42815   0.0164  31.5537 0001949 275.1125 177.1938  1.00270108 32812
INTELSAT 35E (IS-35E)   
1 42818U 17041A   26170.17324176  .00000000  00000+0  00000+0 0  9991
2 42818   0.0194  13.3558 0002038  75.0828 206.8380  1.00270762 32835
COSMOS 2520             
1 42907U 17046A   26169.47604609  .00000131  00000+0  00000+0 0  9993
2 42907   0.0475  93.6563 0001267   6.2150  23.1999  1.00271321 32412
TDRS 13                 
1 42915U 17047A   26170.39164924 -.00000107  00000+0  00000+0 0  9991
2 42915   3.4523   2.8094 0014583 106.3881 287.9749  1.00271772 32379
